ONEWEB-0435             
1 51632U 22012L   26194.53825456  .00000638  00000+0  17912-2 0  9992
2 51632  87.8813  31.0252 0001859  99.9649 260.1688 13.10375642212767
ONEWEB-0436             
1 51633U 22012M   26194.86580228 -.00000014  00000+0 -68885-4 0  9991
2 51633  87.9151   0.5396 0001922  99.0442 261.0907 13.17647317217191
ONEWEB-0438             
1 51634U 22012N   26194.59932142  .00000407  00000+0  11286-2 0  9993
2 51634  87.8814  31.0170 0001855  78.8814 281.2522 13.10378237212804
ONEWEB-0439             
1 51635U 22012P   26194.60272830  .00000451  00000+0  12568-2 0  9990
2 51635  87.8816  31.0027 0001703  83.9578 276.1743 13.10376216212784
ONEWEB-0442             
1 51636U 22012Q   26194.85822360 -.00000020  00000+0 -84381-4 0  9995
2 51636  87.9143   0.5715 0001787  73.0423 287.0905 13.17650819217186
ONEWEB-0443             
1 51637U 22012R   26194.49793159 -.00000149  00000+0 -41698-3 0  9994
2 51637  87.9141   0.6443 0001490  94.0892 266.0410 13.17648248217189
ONEWEB-0444             
1 51638U 22012S   26194.51617385 -.00000056  00000+0 -19623-3 0  9994
2 51638  87.8820  31.0193 0001600  88.4665 271.6646 13.10378389212784
ONEWEB-0445             
1 51639U 22012T   26194.61290485  .00000627  00000+0  17592-2 0  9998
2 51639  87.8824  30.9899 0001920  85.7714 274.3632 13.10376217212806
ONEWEB-0446             
1 51640U 22012U   26194.51446552 -.00002211  00000+0 -63709-2 0  9991
2 51640  87.8814  31.0362 0002291  88.9531 271.1859 13.10386160212778
ONEWEB-0448             
1 51641U 22012V   26194.59592736  .00000167  00000+0  44203-3 0  9991
2 51641  87.8816  31.0165 0001780  86.6193 273.5138 13.10378705212753
ONEWEB-0449             
1 51642U 22012W   26194.60101874  .00000460  00000+0  12821-2 0  9999
2 51642  87.8821  31.0024 0001918  68.1266 292.0065 13.10375932212768
ONEWEB-0451             
1 51643U 22012X   26194.86242801  .00000016  00000+0  92360-5 0  9990
2 51643  87.9157   0.5387 0001727  86.0525 274.0804 13.17651049217174
ONEWEB-0452             
1 51644U 22012Y   26194.86074049 -.00000038  00000+0 -13006-3 0  9992
2 51644  87.9142   0.5729 0001570  89.0484 271.0828 13.17647167217182
ONEWEB-0456             
1 51646U 22012AA  26194.53313726  .00000704  00000+0  19813-2 0  9995
2 51646  87.8827  31.0047 0001761  91.4542 268.6787 13.10372852212796
ONEWEB-0457             
1 51647U 22012AB  26194.51094107 -.00000254  00000+0 -76439-3 0  9993
2 51647  87.8817  31.0251 0002106  78.1122 282.0242 13.10378921212792
ONEWEB-0458             
1 51648U 22012AC  26194.60866222  .00000640  00000+0  17974-2 0  9994
2 51648  87.8818  30.9937 0001616  85.6094 274.5218 13.10373723212760
